[{"OBJECT_NAME":"IRIDIUM 124","OBJECT_ID":"2017-039H","EPOCH":"2026-03-09T23:29:37.068864","MEAN_MOTION":14.432748,"ECCENTRICITY":0.0002084,"INCLINATION":86.4531,"RA_OF_ASC_NODE":331.8553,"ARG_OF_PERICENTER":84.6213,"MEAN_ANOMALY":275.5226,"EPHEMERIS_TYPE":0,"CLASSIFICATION_TYPE":"U","NORAD_CAT_ID":42810,"ELEMENT_SET_NO":999,"REV_AT_EPOCH":46080,"BSTAR":0.00013794234,"MEAN_MOTION_DOT":4.84e-6,"MEAN_MOTION_DDOT":0},{"OBJECT_NAME":"FENGYUN 1C DEB","OBJECT_ID":"1999-025BDE","EPOCH":"2026-03-09T23:10:43.155264","MEAN_MOTION":14.27956523,"ECCENTRICITY":0.00823753,"INCLINATION":98.9064,"RA_OF_ASC_NODE":333.8046,"ARG_OF_PERICENTER":359.215,"MEAN_ANOMALY":62.4878,"EPHEMERIS_TYPE":0,"CLASSIFICATION_TYPE":"U","NORAD_CAT_ID":31012,"ELEMENT_SET_NO":999,"REV_AT_EPOCH":98992,"BSTAR":0.00023940321,"MEAN_MOTION_DOT":5.69e-6,"MEAN_MOTION_DDOT":0}]
